{
  "type": "FeatureCollection",
  "features": [
    {
      "type": "Feature",
      "properties": {
        "norad_id": 31475,
        "name": "FENGYUN 1C DEB",
        "group": "fengyun-1c-debris",
        "lat": -30.350378638919985,
        "lon": 63.89921830709859,
        "alt_km": 888.7635987379226,
        "timestamp": "2025-12-25T22:42:17.294120+00:00",
        "meta_object_name": "FENGYUN 1C DEB",
        "meta_object_id": "1999-025BVP",
        "meta_epoch": "2025-12-23T22:59:46.307040",
        "meta_mean_motion": 14.38250709,
        "meta_eccentricity": 0.0211772,
        "meta_inclination": 98.9391,
        "meta_ra_of_asc_node": 247.1174,
        "meta_arg_of_pericenter": 74.1506,
        "meta_mean_anomaly": 288.2912,
        "meta_ephemeris_type": 0,
        "meta_classification_type": "U",
        "meta_norad_cat_id": 31475,
        "meta_element_set_no": 999,
        "meta_rev_at_epoch": 96240,
        "meta_bstar": 0.00069378,
        "meta_mean_motion_dot": 2.684e-05,
        "meta_mean_motion_ddot": 0,
        "tle_line1": "1 31475U 99025BVP 25357.95817485  .00002684  00000+0  69378-3 0  9999",
        "tle_line2": "2 31475  98.9391 247.1174 0211772  74.1506 288.2912 14.38250709962402"
      },
      "geometry": {
        "type": "Point",
        "coordinates": [
          63.89921830709859,
          -30.350378638919985
        ]
      }
    },
    {
      "type": "Feature",
      "properties": {
        "norad_id": 31476,
        "name": "FENGYUN 1C DEB",
        "group": "fengyun-1c-debris",
        "lat": -38.81229192409915,
        "lon": 80.80123400494595,
        "alt_km": 862.2489276947645,
        "timestamp": "2025-12-25T22:42:17.294130+00:00",
        "meta_object_name": "FENGYUN 1C DEB",
        "meta_object_id": "1999-025BVQ",
        "meta_epoch": "2025-12-25T04:19:04.194624",
        "meta_mean_motion": 14.22182287,
        "meta_eccentricity": 0.00528824,
        "meta_inclination": 98.8969,
        "meta_ra_of_asc_node": 72.7901,
        "meta_arg_of_pericenter": 137.4225,
        "meta_mean_anomaly": 223.107,
        "meta_ephemeris_type": 0,
        "meta_classification_type": "U",
        "meta_norad_cat_id": 31476,
        "meta_element_set_no": 999,
        "meta_rev_at_epoch": 95876,
        "meta_bstar": 0.001573372,
        "meta_mean_motion_dot": 3.495e-05,
        "meta_mean_motion_ddot": 0,
        "tle_line1": "1 31476U 99025BVQ 25359.17990966  .00003495  00000+0  15734-2 0  9999",
        "tle_line2": "2 31476  98.8969  72.7901 0052882 137.4225 223.1070 14.22182287958764"
      },
      "geometry": {
        "type": "Point",
        "coordinates": [
          80.80123400494595,
          -38.81229192409915
        ]
      }
    },
    {
      "type": "Feature",
      "properties": {
        "norad_id": 31477,
        "name": "FENGYUN 1C DEB",
        "group": "fengyun-1c-debris",
        "lat": -51.50615459855581,
        "lon": 157.98974096084714,
        "alt_km": 929.4955739336383,
        "timestamp": "2025-12-25T22:42:17.294141+00:00",
        "meta_object_name": "FENGYUN 1C DEB",
        "meta_object_id": "1999-025BVR",
        "meta_epoch": "2025-12-23T16:32:04.337376",
        "meta_mean_motion": 14.02935294,
        "meta_eccentricity": 0.01097133,
        "meta_inclination": 98.8872,
        "meta_ra_of_asc_node": 347.133,
        "meta_arg_of_pericenter": 358.4238,
        "meta_mean_anomaly": 1.6568,
        "meta_ephemeris_type": 0,
        "meta_classification_type": "U",
        "meta_norad_cat_id": 31477,
        "meta_element_set_no": 999,
        "meta_rev_at_epoch": 95557,
        "meta_bstar": 0.00038195011,
        "meta_mean_motion_dot": 5.81e-06,
        "meta_mean_motion_ddot": 0,
        "tle_line1": "1 31477U 99025BVR 25357.68893909  .00000581  00000+0  38195-3 0  9993",
        "tle_line2": "2 31477  98.8872 347.1330 0109713 358.4238   1.6568 14.02935294955577"
      },
      "geometry": {
        "type": "Point",
        "coordinates": [
          157.98974096084714,
          -51.50615459855581
        ]
      }
    },
    {
      "type": "Feature",
      "properties": {
        "norad_id": 31480,
        "name": "FENGYUN 1C DEB",
        "group": "fengyun-1c-debris",
        "lat": 3.921568353249596,
        "lon": -150.79580348864158,
        "alt_km": 1181.96447168146,
        "timestamp": "2025-12-25T22:42:17.294152+00:00",
        "meta_object_name": "FENGYUN 1C DEB",
        "meta_object_id": "1999-025BVU",
        "meta_epoch": "2025-12-24T20:46:14.124000",
        "meta_mean_motion": 13.90037757,
        "meta_eccentricity": 0.03436956,
        "meta_inclination": 98.3386,
        "meta_ra_of_asc_node": 208.809,
        "meta_arg_of_pericenter": 187.5724,
        "meta_mean_anomaly": 172.017,
        "meta_ephemeris_type": 0,
        "meta_classification_type": "U",
        "meta_norad_cat_id": 31480,
        "meta_element_set_no": 999,
        "meta_rev_at_epoch": 93564,
        "meta_bstar": 0.002597268,
        "meta_mean_motion_dot": 5.128e-05,
        "meta_mean_motion_ddot": 0,
        "tle_line1": "1 31480U 99025BVU 25358.86544125  .00005128  00000+0  25973-2 0  9992",
        "tle_line2": "2 31480  98.3386 208.8090 0343695 187.5724 172.0170 13.90037757935643"
      },
      "geometry": {
        "type": "Point",
        "coordinates": [
          -150.79580348864158,
          3.921568353249596
        ]
      }
    },
    {
      "type": "Feature",
      "properties": {
        "norad_id": 31482,
        "name": "FENGYUN 1C DEB",
        "group": "fengyun-1c-debris",
        "lat": 77.25344545897534,
        "lon": -37.24673343592938,
        "alt_km": 825.792964304429,
        "timestamp": "2025-12-25T22:42:17.294161+00:00",
        "meta_object_name": "FENGYUN 1C DEB",
        "meta_object_id": "1999-025BVW",
        "meta_epoch": "2025-12-24T06:15:25.833024",
        "meta_mean_motion": 14.3570192,
        "meta_eccentricity": 0.00887436,
        "meta_inclination": 98.3828,
        "meta_ra_of_asc_node": 1.7956,
        "meta_arg_of_pericenter": 247.5543,
        "meta_mean_anomaly": 127.5422,
        "meta_ephemeris_type": 0,
        "meta_classification_type": "U",
        "meta_norad_cat_id": 31482,
        "meta_element_set_no": 999,
        "meta_rev_at_epoch": 97295,
        "meta_bstar": 0.0006698744,
        "meta_mean_motion_dot": 1.979e-05,
        "meta_mean_motion_ddot": 0,
        "tle_line1": "1 31482U 99025BVW 25358.26071566  .00001979  00000+0  66987-3 0  9993",
        "tle_line2": "2 31482  98.3828   1.7956 0088743 247.5543 127.5422 14.35701920972953"
      },
      "geometry": {
        "type": "Point",
        "coordinates": [
          -37.24673343592938,
          77.25344545897534
        ]
      }
    },
    {
      "type": "Feature",
      "properties": {
        "norad_id": 31483,
        "name": "FENGYUN 1C DEB",
        "group": "fengyun-1c-debris",
        "lat": 76.36831872854091,
        "lon": -110.73541352853286,
        "alt_km": 849.6441513118625,
        "timestamp": "2025-12-25T22:42:17.294172+00:00",
        "meta_object_name": "FENGYUN 1C DEB",
        "meta_object_id": "1999-025BVX",
        "meta_epoch": "2025-12-25T16:20:58.735104",
        "meta_mean_motion": 14.16165365,
        "meta_eccentricity": 0.0117802,
        "meta_inclination": 102.5049,
        "meta_ra_of_asc_node": 315.1162,
        "meta_arg_of_pericenter": 188.5674,
        "meta_mean_anomaly": 347.9676,
        "meta_ephemeris_type": 0,
        "meta_classification_type": "U",
        "meta_norad_cat_id": 31483,
        "meta_element_set_no": 999,
        "meta_rev_at_epoch": 94889,
        "meta_bstar": 0.0024306,
        "meta_mean_motion_dot": 5.074e-05,
        "meta_mean_motion_ddot": 0,
        "tle_line1": "1 31483U 99025BVX 25359.68123536  .00005074  00000+0  24306-2 0  9994",
        "tle_line2": "2 31483 102.5049 315.1162 0117802 188.5674 347.9676 14.16165365948897"
      },
      "geometry": {
        "type": "Point",
        "coordinates": [
          -110.73541352853286,
          76.36831872854091
        ]
      }
    },
    {
      "type": "Feature",
      "properties": {
        "norad_id": 31484,
        "name": "FENGYUN 1C DEB",
        "group": "fengyun-1c-debris",
        "lat": -51.4580101703571,
        "lon": -43.18686238228054,
        "alt_km": 787.5486947298732,
        "timestamp": "2025-12-25T22:42:17.294182+00:00",
        "meta_object_name": "FENGYUN 1C DEB",
        "meta_object_id": "1999-025BVY",
        "meta_epoch": "2025-12-23T01:26:10.111200",
        "meta_mean_motion": 14.50731885,
        "meta_eccentricity": 0.00830007,
        "meta_inclination": 101.8064,
        "meta_ra_of_asc_node": 297.5559,
        "meta_arg_of_pericenter": 124.1407,
        "meta_mean_anomaly": 236.7682,
        "meta_ephemeris_type": 0,
        "meta_classification_type": "U",
        "meta_norad_cat_id": 31484,
        "meta_element_set_no": 999,
        "meta_rev_at_epoch": 64387,
        "meta_bstar": 0.0046453294,
        "meta_mean_motion_dot": 0.00019079,
        "meta_mean_motion_ddot": 0,
        "tle_line1": "1 31484U 99025BVY 25357.05983925  .00019079  00000+0  46453-2 0  9997",
        "tle_line2": "2 31484 101.8064 297.5559 0083000 124.1407 236.7682 14.50731885643878"
      },
      "geometry": {
        "type": "Point",
        "coordinates": [
          -43.18686238228054,
          -51.4580101703571
        ]
      }
    }
  ]
}